OBJECT_NAME,OBJECT_ID,EPOCH,MEAN_MOTION,ECCENTRICITY,INCLINATION,RA_OF_ASC_NODE,ARG_OF_PERICENTER,MEAN_ANOMALY,EPHEMERIS_TYPE,CLASSIFICATION_TYPE,NORAD_CAT_ID,ELEMENT_SET_NO,REV_AT_EPOCH,BSTAR,MEAN_MOTION_DOT,MEAN_MOTION_DDOT
ONEWEB-0211,2021-045A,2026-07-20T11:42:12.852864,13.16197577,.00027201,87.8983,252.4401,101.6064,258.5372,0,U,48767,999,24882,-.4925011E-5,.11E-6,0
ONEWEB-0223,2021-045B,2026-07-20T10:19:40.060128,13.15548805,.00023283,87.8985,252.5686,104.3683,255.7706,0,U,48768,999,24877,.28969952E-3,.122E-5,0
ONEWEB-0230,2021-045C,2026-07-20T09:38:35.832768,13.15548160,.00018931,87.8979,252.5851,95.4478,264.6869,0,U,48769,999,24903,-.51571851E-3,-.181E-5,0
ONEWEB-0237,2021-045D,2026-07-20T20:19:45.285024,13.15548643,.0002334,87.8978,252.4978,92.9795,267.1603,0,U,48770,999,24881,-.49533E-4,-.6E-7,0
ONEWEB-0235,2021-045E,2026-07-20T05:07:02.332416,13.15550318,.00022837,87.8987,252.6130,107.6821,252.4558,0,U,48771,999,24872,.29563599E-3,.124E-5,0
ONEWEB-0242,2021-045F,2026-07-20T04:57:56.692224,13.15548818,.0001969,87.8987,252.6118,103.2325,256.9026,0,U,48772,999,24876,.34655133E-3,.143E-5,0
ONEWEB-0241,2021-045G,2026-07-20T04:39:44.515008,13.15540984,.00023843,87.8975,252.6288,102.8571,257.2826,0,U,48773,999,24867,.58808471E-3,.234E-5,0
ONEWEB-0243,2021-045H,2026-07-20T03:35:46.287456,13.15550975,.00019206,87.8980,252.6503,112.5186,247.6148,0,U,48774,999,24869,-.1508139E-4,.7E-7,0
ONEWEB-0222,2021-045J,2026-07-20T03:11:50.404992,13.15568745,.00021231,87.8985,252.6239,97.6096,262.5276,0,U,48775,999,24873,-.10357352E-1,-.3886E-4,0
ONEWEB-0244,2021-045K,2026-07-20T16:36:09.214848,13.15548014,.0002064,87.8994,252.5087,100.1380,259.9983,0,U,48776,999,24937,-.91515E-4,-.22E-6,0
ONEWEB-0247,2021-045L,2026-07-20T16:31:33.838176,13.15546708,.0002262,87.8982,252.5373,118.6253,241.5105,0,U,48777,999,24881,-.88681E-5,.9E-7,0
ONEWEB-0245,2021-045M,2026-07-20T20:03:45.859680,13.15549383,.0002207,87.8989,252.4901,97.2683,262.8698,0,U,48778,999,24880,.15215E-3,.7E-6,0
ONEWEB-0229,2021-045N,2026-07-20T19:56:56.651136,13.15548235,.0001995,87.8986,252.4888,100.3550,259.7805,0,U,48779,999,24883,.31525E-3,.132E-5,0
ONEWEB-0228,2021-045P,2026-07-20T20:45:02.508768,13.15548838,.0002188,87.8991,252.4764,98.8737,261.2641,0,U,48780,999,24875,-.29984E-3,-.1E-5,0
ONEWEB-0232,2021-045Q,2026-07-20T20:08:21.538752,13.15547813,.0002129,87.8991,252.4819,96.0471,264.0902,0,U,48781,999,24907,.14034E-3,.66E-6,0
ONEWEB-0231,2021-045R,2026-07-20T10:28:47.765280,13.15553503,.00021892,87.8981,252.5734,96.9042,263.2338,0,U,48782,999,24871,-.33762927E-2,-.1258E-4,0
ONEWEB-0234,2021-045S,2026-07-20T20:30:58.449024,13.15547559,.0002629,87.8991,252.4725,81.4276,278.7152,0,U,48783,999,24890,-.26207E-3,-.86E-6,0
ONEWEB-0238,2021-045T,2026-07-20T20:31:20.393760,13.15548722,.000228,87.8995,252.4688,87.5046,272.6345,0,U,48784,999,24880,-.23299E-3,-.75E-6,0
ONEWEB-0240,2021-045U,2026-07-20T10:04:49.161216,13.15549333,.0002364,87.8988,252.5649,100.2299,259.9098,0,U,48785,999,24877,-.20898364E-3,-.66E-6,0
ONEWEB-0246,2021-045V,2026-07-20T09:56:50.941536,13.15548083,.00020166,87.8988,252.5697,99.6276,260.5083,0,U,48786,999,24864,-.15090329E-3,-.44E-6,0
ONEWEB-0210,2021-045W,2026-07-20T16:38:25.915200,13.15547906,.0001995,87.8990,252.5113,121.6633,238.4692,0,U,48787,999,24872,-.89523E-4,-.21E-6,0
ONEWEB-0214,2021-045X,2026-07-20T16:50:58.371936,13.15546504,.0001749,87.8989,252.5069,102.0215,258.1111,0,U,48788,999,24869,-.45284E-3,-.158E-5,0
ONEWEB-0221,2021-045Y,2026-07-20T20:40:17.865696,13.15547932,.000217,87.8985,252.4831,101.0621,259.0753,0,U,48789,999,24880,-.38471E-3,-.132E-5,0
ONEWEB-0213,2021-045Z,2026-07-20T16:45:16.526016,13.15548311,.0002122,87.8990,252.5187,104.7885,255.3481,0,U,48790,999,24884,-.33863E-3,-.115E-5,0
ONEWEB-0212,2021-045AA,2026-07-20T08:54:05.636448,13.15547617,.00020546,87.8988,252.5783,96.3721,263.7643,0,U,48791,999,24879,.31683291E-3,.132E-5,0
ONEWEB-0227,2021-045AB,2026-07-20T05:13:55.084224,13.15547953,.00020806,87.8987,252.6089,98.9020,261.2346,0,U,48792,999,24872,.43384238E-4,.29E-6,0
ONEWEB-0226,2021-045AC,2026-07-20T05:04:47.429184,13.15548051,.00020092,87.8985,252.6147,104.7281,255.4073,0,U,48793,999,24869,.17463001E-3,.79E-6,0
ONEWEB-0224,2021-045AD,2026-07-20T20:38:00.841344,13.15548425,.0002936,87.8977,252.5178,92.5356,267.6110,0,U,48794,999,24870,-.39179E-3,-.135E-5,0
ONEWEB-0233,2021-045AE,2026-07-20T09:47:30.034464,13.15550855,.00023025,87.8976,252.6150,101.7328,258.4061,0,U,48795,999,24866,-.21278866E-3,-.67E-6,0
ONEWEB-0190,2021-045AF,2026-07-20T20:26:35.925216,13.15549214,.0002392,87.8984,252.4903,112.4278,247.7106,0,U,48796,999,24879,-.11058E-3,-.29E-6,0
