ONEWEB-0211             
1 48767U 21045A   26201.48764876  .00000011  00000+0 -49250-5 0  9992
2 48767  87.8983 252.4401 0002720 101.6064 258.5372 13.16197577248827
ONEWEB-0223             
1 48768U 21045B   26201.43032477  .00000122  00000+0  28970-3 0  9999
2 48768  87.8985 252.5686 0002328 104.3683 255.7706 13.15548805248774
ONEWEB-0230             
1 48769U 21045C   26201.40180362 -.00000181  00000+0 -51572-3 0  9995
2 48769  87.8979 252.5851 0001893  95.4478 264.6869 13.15548160249033
ONEWEB-0237             
1 48770U 21045D   26201.84705191 -.00000006  00000+0 -49533-4 0  9999
2 48770  87.8978 252.4978 0002334  92.9795 267.1603 13.15548643248813
ONEWEB-0235             
1 48771U 21045E   26201.21322144  .00000124  00000+0  29564-3 0  9994
2 48771  87.8987 252.6130 0002283 107.6821 252.4558 13.15550318248721
ONEWEB-0242             
1 48772U 21045F   26201.20690616  .00000143  00000+0  34655-3 0  9994
2 48772  87.8987 252.6118 0001969 103.2325 256.9026 13.15548818248764
ONEWEB-0241             
1 48773U 21045G   26201.19426522  .00000234  00000+0  58808-3 0  9993
2 48773  87.8975 252.6288 0002384 102.8571 257.2826 13.15540984248678
ONEWEB-0243             
1 48774U 21045H   26201.14984129  .00000007  00000+0 -15081-4 0  9997
2 48774  87.8980 252.6503 0001920 112.5186 247.6148 13.15550975248693
ONEWEB-0222             
1 48775U 21045J   26201.13322228 -.00003886  00000+0 -10357-1 0  9990
2 48775  87.8985 252.6239 0002123  97.6096 262.5276 13.15568745248731
ONEWEB-0244             
1 48776U 21045K   26201.69177332 -.00000022  00000+0 -91515-4 0  9993
2 48776  87.8994 252.5087 0002064 100.1380 259.9983 13.15548014249375
ONEWEB-0247             
1 48777U 21045L   26201.68858609  .00000009  00000+0 -88681-5 0  9991
2 48777  87.8982 252.5373 0002262 118.6253 241.5105 13.15546708248813
ONEWEB-0245             
1 48778U 21045M   26201.83594745  .00000070  00000+0  15215-3 0  9995
2 48778  87.8989 252.4901 0002207  97.2683 262.8698 13.15549383248809
ONEWEB-0229             
1 48779U 21045N   26201.83121124  .00000132  00000+0  31525-3 0  9994
2 48779  87.8986 252.4888 0001995 100.3550 259.7805 13.15548235248836
ONEWEB-0228             
1 48780U 21045P   26201.86461237 -.00000100  00000+0 -29984-3 0  9994
2 48780  87.8991 252.4764 0002188  98.8737 261.2641 13.15548838248756
ONEWEB-0232             
1 48781U 21045Q   26201.83913818  .00000066  00000+0  14034-3 0  9998
2 48781  87.8991 252.4819 0002129  96.0471 264.0902 13.15547813249077
ONEWEB-0231             
1 48782U 21045R   26201.43666395 -.00001258  00000+0 -33763-2 0  9995
2 48782  87.8981 252.5734 0002189  96.9042 263.2338 13.15553503248710
ONEWEB-0234             
1 48783U 21045S   26201.85484316 -.00000086  00000+0 -26207-3 0  9997
2 48783  87.8991 252.4725 0002629  81.4276 278.7152 13.15547559248908
ONEWEB-0238             
1 48784U 21045T   26201.85509715 -.00000075  00000+0 -23299-3 0  9995
2 48784  87.8995 252.4688 0002280  87.5046 272.6345 13.15548722248805
ONEWEB-0240             
1 48785U 21045U   26201.42001344 -.00000066  00000+0 -20898-3 0  9996
2 48785  87.8988 252.5649 0002364 100.2299 259.9098 13.15549333248770
ONEWEB-0246             
1 48786U 21045V   26201.41447849 -.00000044  00000+0 -15090-3 0  9994
2 48786  87.8988 252.5697 0002016  99.6276 260.5083 13.15548083248643
ONEWEB-0210             
1 48787U 21045W   26201.69335550 -.00000021  00000+0 -89523-4 0  9998
2 48787  87.8990 252.5113 0001995 121.6633 238.4692 13.15547906248720
ONEWEB-0214             
1 48788U 21045X   26201.70206449 -.00000158  00000+0 -45284-3 0  9991
2 48788  87.8989 252.5069 0001749 102.0215 258.1111 13.15546504248699
ONEWEB-0221             
1 48789U 21045Y   26201.86131789 -.00000132  00000+0 -38471-3 0  9995
2 48789  87.8985 252.4831 0002170 101.0621 259.0753 13.15547932248802
ONEWEB-0213             
1 48790U 21045Z   26201.69810794 -.00000115  00000+0 -33863-3 0  9999
2 48790  87.8990 252.5187 0002122 104.7885 255.3481 13.15548311248847
ONEWEB-0212             
1 48791U 21045AA  26201.37089857  .00000132  00000+0  31683-3 0  9998
2 48791  87.8988 252.5783 0002054  96.3721 263.7643 13.15547617248791
ONEWEB-0227             
1 48792U 21045AB  26201.21799866  .00000029  00000+0  43384-4 0  9997
2 48792  87.8987 252.6089 0002080  98.9020 261.2346 13.15547953248729
ONEWEB-0226             
1 48793U 21045AC  26201.21166006  .00000079  00000+0  17463-3 0  9995
2 48793  87.8985 252.6147 0002009 104.7281 255.4073 13.15548051248697
ONEWEB-0224             
1 48794U 21045AD  26201.85973196 -.00000135  00000+0 -39179-3 0  9995
2 48794  87.8977 252.5178 0002936  92.5356 267.6110 13.15548425248702
ONEWEB-0233             
1 48795U 21045AE  26201.40798651 -.00000067  00000+0 -21279-3 0  9994
2 48795  87.8976 252.6150 0002302 101.7328 258.4061 13.15550855248660
ONEWEB-0190             
1 48796U 21045AF  26201.85180469 -.00000029  00000+0 -11058-3 0  9998
2 48796  87.8984 252.4903 0002392 112.4278 247.7106 13.15549214248798
